{
    "links": {
        "self": "http://www.neowsapp.com/rest/v1/neo/3838855?api_key=iIulBulltgU6a56xZRHN4H3l9WmuAYTsLGpBGhQ2"
    },
    "id": "3838855",
    "neo_reference_id": "3838855",
    "name": "(2019 DG1)",
    "designation": "2019 DG1",
    "nasa_jpl_url": "http://ssd.jpl.nasa.gov/sbdb.cgi?sstr=3838855",
    "absolute_magnitude_h": 26.7,
    "estimated_diameter": {
        "kilometers": {
            "estimated_diameter_min": 0.0121494041,
            "estimated_diameter_max": 0.0271668934
        },
        "meters": {
            "estimated_diameter_min": 12.14940408,
            "estimated_diameter_max": 27.1668934089
        },
        "miles": {
            "estimated_diameter_min": 0.0075492874,
            "estimated_diameter_max": 0.0168807197
        },
        "feet": {
            "estimated_diameter_min": 39.8602508817,
            "estimated_diameter_max": 89.1302305717
        }
    },
    "is_potentially_hazardous_asteroid": false,
    "close_approach_data": [
        {
            "close_approach_date": "2010-12-29",
            "close_approach_date_full": "2010-Dec-29 02:06",
            "epoch_date_close_approach": 1293588360000,
            "relative_velocity": {
                "kilometers_per_second": "3.4110104677",
                "kilometers_per_hour": "12279.6376836278",
                "miles_per_hour": "7630.0893151408"
            },
            "miss_distance": {
                "astronomical": "1.8366291467",
                "lunar": "714.4487380663",
                "kilometers": "274755808.326237529",
                "miles": "170725342.6545907402"
            },
            "orbiting_body": "Juptr"
        },
        {
            "close_approach_date": "2019-03-03",
            "close_approach_date_full": "2019-Mar-03 08:47",
            "epoch_date_close_approach": 1551602820000,
            "relative_velocity": {
                "kilometers_per_second": "7.2093638976",
                "kilometers_per_hour": "25953.7100313878",
                "miles_per_hour": "16126.6261025587"
            },
            "miss_distance": {
                "astronomical": "0.0123906007",
                "lunar": "4.8199436723",
                "kilometers": "1853607.472740509",
                "miles": "1151778.2748926642"
            },
            "orbiting_body": "Earth"
        },
        {
            "close_approach_date": "2029-01-16",
            "close_approach_date_full": "2029-Jan-16 08:22",
            "epoch_date_close_approach": 1863246120000,
            "relative_velocity": {
                "kilometers_per_second": "18.560099363",
                "kilometers_per_hour": "66816.3577067852",
                "miles_per_hour": "41517.0862650855"
            },
            "miss_distance": {
                "astronomical": "0.3573232198",
                "lunar": "138.9987325022",
                "kilometers": "53454792.583621826",
                "miles": "33215267.8990241588"
            },
            "orbiting_body": "Earth"
        },
        {
            "close_approach_date": "2125-02-10",
            "close_approach_date_full": "2125-Feb-10 00:01",
            "epoch_date_close_approach": 4894819260000,
            "relative_velocity": {
                "kilometers_per_second": "9.9210589656",
                "kilometers_per_hour": "35715.8122762541",
                "miles_per_hour": "22192.4168002091"
            },
            "miss_distance": {
                "astronomical": "0.0776402843",
                "lunar": "30.2020705927",
                "kilometers": "11614821.157474441",
                "miles": "7217115.2051756458"
            },
            "orbiting_body": "Earth"
        }
    ],
    "orbital_data": {
        "orbit_id": "9",
        "orbit_determination_date": "2019-03-23 06:54:44",
        "first_observation_date": "2019-02-28",
        "last_observation_date": "2019-03-16",
        "data_arc_in_days": 16,
        "observations_used": 59,
        "orbit_uncertainty": "7",
        "minimum_orbit_intersection": ".00671883",
        "jupiter_tisserand_invariant": "3.432",
        "epoch_osculation": "2459000.5",
        "eccentricity": ".5502175788913695",
        "semi_major_axis": "2.222694050843867",
        "inclination": ".8249453426103184",
        "ascending_node_longitude": "356.3270544465229",
        "orbital_period": "1210.369461275222",
        "perihelion_distance": ".9997287115723038",
        "perihelion_argument": "171.3805374172557",
        "aphelion_distance": "3.445659390115429",
        "perihelion_time": "2458550.349425673375",
        "mean_anomaly": "133.8882150800864",
        "mean_motion": ".297429843959142",
        "equinox": "J2000",
        "orbit_class": {
            "orbit_class_type": "APO",
            "orbit_class_description": "Near-Earth asteroid orbits which cross the Earth’s orbit similar to that of 1862 Apollo",
            "orbit_class_range": "a (semi-major axis) > 1.0 AU; q (perihelion) < 1.017 AU"
        }
    },
    "is_sentry_object": false
}